29601,NAVSTAR 59 (USA 192),2006,718.0,2060.0,+,55.05,Active,1,MEO,USA,USA,Commercial/Military,Navigation (Global or Regional Positioning),Delta,1 29601U 06052A   25061.76146862  .00000053  00000+0  00000+0 0  9991,2 29601  55.0485 232.7019 0087878  84.8893 276.0836  2.00556337133953,2.00556337,0.0087878,MEO
32260,NAVSTAR 60 (USA 196),2007,718.02,2217.0,+,53.76,Active,1,MEO,USA,USA,Commercial/Military,Navigation (Global or Regional Positioning),Delta,1 32260U 07047A   25062.07049021  .00000011  00000+0  00000+0 0  9999,2 32260  53.7581  99.5252 0158928  79.8854 281.9780  2.00552065127369,2.00552065,0.0158928,MEO
32384,NAVSTAR 61 (USA 199),2007,717.98,2060.0,+,55.42,Active,1,MEO,USA,USA,Commercial/Military,Navigation (Global or Regional Positioning),Delta,1 32384U 07062A   25062.13158193 -.00000013  00000+0  00000+0 0  9994,2 32384  55.4183 293.0414 0029212 153.4728  19.7586  2.00561384126067,2.00561384,0.0029212,MEO
32711,NAVSTAR 62 (USA 201),2008,718.01,2217.0,+,54.46,Active,1,MEO,USA,USA,Commercial/Military,Navigation (Global or Regional Positioning),Delta,1 32711U 08012A   25062.47982524  .00000026  00000+0  00000+0 0  9997,2 32711  54.4571 168.7134 0194635 241.6828 116.3526  2.00555099124311,2.00555099,0.0194635,MEO
34661,NAVSTAR 63 (USA 203),2009,717.97,-1.0,B,54.59,Active,0,MEO,USA,USA,Unknown,Unknown,Unknown,1 34661U 09014A   25062.38655736  .00000055  00000+0  00000+0 0  9990,2 34661  54.5939 229.5397 0138237  59.9691 299.4041  2.00566464116838,2.00566464,0.0138237,MEO
35752,NAVSTAR 64 (USA 206),2009,718.01,2059.0,+,55.89,Active,1,MEO,USA,USA,Commercial/Military,Navigation (Global or Regional Positioning),Delta,1 35752U 09043A   25062.21989284 -.00000040  00000+0  00000+0 0  9999,2 35752  55.8857  46.0085 0053745  74.8568 108.7469  2.00553807113917,2.00553807,0.0053745,MEO
36585,NAVSTAR 65 (USA 213),2010,717.97,1630.0,+,54.37,Active,1,MEO,USA,USA,Commercial/Military,Navigation (Global or Regional Positioning),Delta,1 36585U 10022A   25061.55355238  .00000050  00000+0  00000+0 0  9995,2 36585  54.3683 227.5696 0121717  63.6418 118.3870  2.00564411108136,2.00564411,0.0121717,MEO
38833,NAVSTAR 67 (USA 239),2012,717.98,1630.0,+,53.53,Active,1,MEO,USA,USA,Commercial/Military,Navigation (Global or Regional Positioning),Delta,1 38833U 12053A   25062.16405333  .00000025  00000+0  00000+0 0  9991,2 38833  53.5283 162.8834 0163174  59.8555 301.7707  2.00561558 90886,2.00561558,0.0163174,MEO
39166,NAVSTAR 68 (USA 242),2013,717.98,1630.0,+,54.89,Active,1,MEO,USA,USA,Commercial/Military,Navigation (Global or Regional Positioning),Atlas,1 39166U 13023A   25062.02653186 -.00000005  00000+0  00000+0 0  9994,2 39166  54.8881 288.1215 0132590  46.6578 314.4906  2.00561741 86438,2.00561741,0.013259,MEO
39533,NAVSTAR 69 (USA 248),2014,718.0,1630.0,+,53.61,Active,1,MEO,USA,USA,Commercial/Military,Navigation (Global or Regional Positioning),Delta,1 39533U 14008A   25062.52430441  .00000025  00000+0  00000+0 0  9999,2 39533  53.6079 168.5067 0076186 222.6291 136.7886  2.00556939 80792,2.00556939,0.0076186,MEO
39741,NAVSTAR 70 (USA 251),2014,718.03,1630.0,+,56.67,Active,1,MEO,USA,USA,Commercial/Military,Navigation (Global or Regional Positioning),Delta,1 39741U 14026A   25062.31083627 -.00000086  00000+0  00000+0 0  9995,2 39741  56.6732 349.8229 0036157 319.2243  40.5248  2.00549886 79098,2.00549886,0.0036157,MEO
40105,NAVSTAR 71 (USA 256),2014,718.01,1630.0,+,55.06,Active,1,MEO,USA,USA,Commercial/Military,Navigation (Global or Regional Positioning),Atlas,1 40105U 14045A   25061.89261661  .00000019  00000+0  00000+0 0  9995,2 40105  55.0570 107.2684 0028324 118.4652 241.8986  2.00553825 76627,2.00553825,0.0028324,MEO
