[
    {
        "OBJECT_NAME": "NAVSTAR 59 (USA 192)",
        "OBJECT_ID": "2006-052A",
        "EPOCH": "2025-03-02T18:16:30.888768",
        "MEAN_MOTION": 2.00556337,
        "ECCENTRICITY": 0.0087878,
        "INCLINATION": 55.0485,
        "RA_OF_ASC_NODE": 232.7019,
        "ARG_OF_PERICENTER": 84.8893,
        "MEAN_ANOMALY": 276.0836,
        "EPHEMERIS_TYPE": 0,
        "CLASSIFICATION_TYPE": "U",
        "NORAD_CAT_ID": 29601,
        "ELEMENT_SET_NO": 999,
        "REV_AT_EPOCH": 13395,
        "BSTAR": 0,
        "MEAN_MOTION_DOT": 5.3e-07,
        "MEAN_MOTION_DDOT": 0
    },
    {
        "OBJECT_NAME": "NAVSTAR 60 (USA 196)",
        "OBJECT_ID": "2007-047A",
        "EPOCH": "2025-03-03T01:41:30.354144",
        "MEAN_MOTION": 2.00552065,
        "ECCENTRICITY": 0.0158928,
        "INCLINATION": 53.7581,
        "RA_OF_ASC_NODE": 99.5252,
        "ARG_OF_PERICENTER": 79.8854,
        "MEAN_ANOMALY": 281.978,
        "EPHEMERIS_TYPE": 0,
        "CLASSIFICATION_TYPE": "U",
        "NORAD_CAT_ID": 32260,
        "ELEMENT_SET_NO": 999,
        "REV_AT_EPOCH": 12736,
        "BSTAR": 0,
        "MEAN_MOTION_DOT": 1.1e-07,
        "MEAN_MOTION_DDOT": 0
    },
    {
        "OBJECT_NAME": "NAVSTAR 61 (USA 199)",
        "OBJECT_ID": "2007-062A",
        "EPOCH": "2025-03-03T03:09:28.678752",
        "MEAN_MOTION": 2.00561384,
        "ECCENTRICITY": 0.0029212,
        "INCLINATION": 55.4183,
        "RA_OF_ASC_NODE": 293.0414,
        "ARG_OF_PERICENTER": 153.4728,
        "MEAN_ANOMALY": 19.7586,
        "EPHEMERIS_TYPE": 0,
        "CLASSIFICATION_TYPE": "U",
        "NORAD_CAT_ID": 32384,
        "ELEMENT_SET_NO": 999,
        "REV_AT_EPOCH": 12606,
        "BSTAR": 0,
        "MEAN_MOTION_DOT": -1.3e-07,
        "MEAN_MOTION_DDOT": 0
    },
    {
        "OBJECT_NAME": "NAVSTAR 62 (USA 201)",
        "OBJECT_ID": "2008-012A",
        "EPOCH": "2025-03-03T11:30:56.900736",
        "MEAN_MOTION": 2.00555099,
        "ECCENTRICITY": 0.0194635,
        "INCLINATION": 54.4571,
        "RA_OF_ASC_NODE": 168.7134,
        "ARG_OF_PERICENTER": 241.6828,
        "MEAN_ANOMALY": 116.3526,
        "EPHEMERIS_TYPE": 0,
        "CLASSIFICATION_TYPE": "U",
        "NORAD_CAT_ID": 32711,
        "ELEMENT_SET_NO": 999,
        "REV_AT_EPOCH": 12431,
        "BSTAR": 0,
        "MEAN_MOTION_DOT": 2.6e-07,
        "MEAN_MOTION_DDOT": 0
    },
    {
        "OBJECT_NAME": "NAVSTAR 63 (USA 203)",
        "OBJECT_ID": "2009-014A",
        "EPOCH": "2025-03-03T09:16:38.555904",
        "MEAN_MOTION": 2.00566464,
        "ECCENTRICITY": 0.0138237,
        "INCLINATION": 54.5939,
        "RA_OF_ASC_NODE": 229.5397,
        "ARG_OF_PERICENTER": 59.9691,
        "MEAN_ANOMALY": 299.4041,
        "EPHEMERIS_TYPE": 0,
        "CLASSIFICATION_TYPE": "U",
        "NORAD_CAT_ID": 34661,
        "ELEMENT_SET_NO": 999,
        "REV_AT_EPOCH": 11683,
        "BSTAR": 0,
        "MEAN_MOTION_DOT": 5.5e-07,
        "MEAN_MOTION_DDOT": 0
    },
    {
        "OBJECT_NAME": "NAVSTAR 64 (USA 206)",
        "OBJECT_ID": "2009-043A",
        "EPOCH": "2025-03-03T05:16:38.741376",
        "MEAN_MOTION": 2.00553807,
        "ECCENTRICITY": 0.0053745,
        "INCLINATION": 55.8857,
        "RA_OF_ASC_NODE": 46.0085,
        "ARG_OF_PERICENTER": 74.8568,
        "MEAN_ANOMALY": 108.7469,
        "EPHEMERIS_TYPE": 0,
        "CLASSIFICATION_TYPE": "U",
        "NORAD_CAT_ID": 35752,
        "ELEMENT_SET_NO": 999,
        "REV_AT_EPOCH": 11391,
        "BSTAR": 0,
        "MEAN_MOTION_DOT": -4e-07,
        "MEAN_MOTION_DDOT": 0
    },
    {
        "OBJECT_NAME": "NAVSTAR 65 (USA 213)",
        "OBJECT_ID": "2010-022A",
        "EPOCH": "2025-03-02T13:17:06.925632",
        "MEAN_MOTION": 2.00564411,
        "ECCENTRICITY": 0.0121717,
        "INCLINATION": 54.3683,
        "RA_OF_ASC_NODE": 227.5696,
        "ARG_OF_PERICENTER": 63.6418,
        "MEAN_ANOMALY": 118.387,
        "EPHEMERIS_TYPE": 0,
        "CLASSIFICATION_TYPE": "U",
        "NORAD_CAT_ID": 36585,
        "ELEMENT_SET_NO": 999,
        "REV_AT_EPOCH": 10813,
        "BSTAR": 0,
        "MEAN_MOTION_DOT": 5e-07,
        "MEAN_MOTION_DDOT": 0
    },
    {
        "OBJECT_NAME": "NAVSTAR 67 (USA 239)",
        "OBJECT_ID": "2012-053A",
        "EPOCH": "2025-03-03T03:56:14.207712",
        "MEAN_MOTION": 2.00561558,
        "ECCENTRICITY": 0.0163174,
        "INCLINATION": 53.5283,
        "RA_OF_ASC_NODE": 162.8834,
        "ARG_OF_PERICENTER": 59.8555,
        "MEAN_ANOMALY": 301.7707,
        "EPHEMERIS_TYPE": 0,
        "CLASSIFICATION_TYPE": "U",
        "NORAD_CAT_ID": 38833,
        "ELEMENT_SET_NO": 999,
        "REV_AT_EPOCH": 9088,
        "BSTAR": 0,
        "MEAN_MOTION_DOT": 2.5e-07,
        "MEAN_MOTION_DDOT": 0
    },
    {
        "OBJECT_NAME": "NAVSTAR 68 (USA 242)",
        "OBJECT_ID": "2013-023A",
        "EPOCH": "2025-03-03T00:38:12.352704",
        "MEAN_MOTION": 2.00561741,
        "ECCENTRICITY": 0.013259,
        "INCLINATION": 54.8881,
        "RA_OF_ASC_NODE": 288.1215,
        "ARG_OF_PERICENTER": 46.6578,
        "MEAN_ANOMALY": 314.4906,
        "EPHEMERIS_TYPE": 0,
        "CLASSIFICATION_TYPE": "U",
        "NORAD_CAT_ID": 39166,
        "ELEMENT_SET_NO": 999,
        "REV_AT_EPOCH": 8643,
        "BSTAR": 0,
        "MEAN_MOTION_DOT": -5e-08,
        "MEAN_MOTION_DDOT": 0
    },
    {
        "OBJECT_NAME": "NAVSTAR 69 (USA 248)",
        "OBJECT_ID": "2014-008A",
        "EPOCH": "2025-03-03T12:34:59.901024",
        "MEAN_MOTION": 2.00556939,
        "ECCENTRICITY": 0.0076186,
        "INCLINATION": 53.6079,
        "RA_OF_ASC_NODE": 168.5067,
        "ARG_OF_PERICENTER": 222.6291,
        "MEAN_ANOMALY": 136.7886,
        "EPHEMERIS_TYPE": 0,
        "CLASSIFICATION_TYPE": "U",
        "NORAD_CAT_ID": 39533,
        "ELEMENT_SET_NO": 999,
        "REV_AT_EPOCH": 8079,
        "BSTAR": 0,
        "MEAN_MOTION_DOT": 2.5e-07,
        "MEAN_MOTION_DDOT": 0
    },
    {
        "OBJECT_NAME": "NAVSTAR 70 (USA 251)",
        "OBJECT_ID": "2014-026A",
        "EPOCH": "2025-03-03T07:27:36.253728",
        "MEAN_MOTION": 2.00549886,
        "ECCENTRICITY": 0.0036157,
        "INCLINATION": 56.6732,
        "RA_OF_ASC_NODE": 349.8229,
        "ARG_OF_PERICENTER": 319.2243,
        "MEAN_ANOMALY": 40.5248,
        "EPHEMERIS_TYPE": 0,
        "CLASSIFICATION_TYPE": "U",
        "NORAD_CAT_ID": 39741,
        "ELEMENT_SET_NO": 999,
        "REV_AT_EPOCH": 7909,
        "BSTAR": 0,
        "MEAN_MOTION_DOT": -8.6e-07,
        "MEAN_MOTION_DDOT": 0
    },
    {
        "OBJECT_NAME": "NAVSTAR 71 (USA 256)",
        "OBJECT_ID": "2014-045A",
        "EPOCH": "2025-03-02T21:25:22.075104",
        "MEAN_MOTION": 2.00553825,
        "ECCENTRICITY": 0.0028324,
        "INCLINATION": 55.057,
        "RA_OF_ASC_NODE": 107.2684,
        "ARG_OF_PERICENTER": 118.4652,
        "MEAN_ANOMALY": 241.8986,
        "EPHEMERIS_TYPE": 0,
        "CLASSIFICATION_TYPE": "U",
        "NORAD_CAT_ID": 40105,
        "ELEMENT_SET_NO": 999,
        "REV_AT_EPOCH": 7662,
        "BSTAR": 0,
        "MEAN_MOTION_DOT": 1.9e-07,
        "MEAN_MOTION_DDOT": 0
    }
]